[{"OBJECT_NAME":"EOSSAT-1","OBJECT_ID":"2023-001AW","EPOCH":"2026-03-09T17:40:07.010400","MEAN_MOTION":15.32339828,"ECCENTRICITY":0.00112629,"INCLINATION":97.3357,"RA_OF_ASC_NODE":130.2294,"ARG_OF_PERICENTER":110.3168,"MEAN_ANOMALY":249.9285,"EPHEMERIS_TYPE":0,"CLASSIFICATION_TYPE":"U","NORAD_CAT_ID":55053,"ELEMENT_SET_NO":999,"REV_AT_EPOCH":17668,"BSTAR":0.00024844399,"MEAN_MOTION_DOT":7.695e-5,"MEAN_MOTION_DDOT":0},{"OBJECT_NAME":"STARLINK-34998","OBJECT_ID":"2025-195S","EPOCH":"2026-03-09T22:35:44.326464","MEAN_MOTION":15.30185825,"ECCENTRICITY":0.00015209,"INCLINATION":53.1579,"RA_OF_ASC_NODE":256.9093,"ARG_OF_PERICENTER":78.6189,"MEAN_ANOMALY":281.4983,"EPHEMERIS_TYPE":0,"CLASSIFICATION_TYPE":"U","NORAD_CAT_ID":65474,"ELEMENT_SET_NO":999,"REV_AT_EPOCH":3001,"BSTAR":0.0011339877,"MEAN_MOTION_DOT":0.00033363,"MEAN_MOTION_DDOT":0}]
